BEIJING 1               
1 28890U 05043A   20134.37836805 -.00000052  00000-0 -12900-5 0  9995
2 28890  98.0245 264.1915 0016416  56.5286 303.7493 14.61288690775390
HJ-1A                   
1 33320U 08041A   20134.51555296  .00000080  00000-0  18332-4 0  9991
2 33320  97.7900 187.6855 0026576 181.9875 178.1239 14.77064744629440
HJ-1B                   
1 33321U 08041B   20134.51493016  .00000099  00000-0  21028-4 0  9999
2 33321  97.7980 189.9411 0033751 210.2594 149.6673 14.77226149629443
YAOGAN 4                
1 33446U 08061A   20134.45525959  .00000053  00000-0  14427-4 0  9999
2 33446  97.7238  91.5070 0017659  93.4514 266.8717 14.77026090616662
DEIMOS-1                
1 35681U 09041A   20134.41290306 -.00000059  00000-0 -19234-5 0  9992
2 35681  97.8154   9.3183 0002231 125.7160 234.4240 14.71832551579235
UK-DMC 2                
1 35683U 09041C   20134.42373439  .00000076  00000-0  19671-4 0  9995
2 35683  97.7028 338.8648 0001285  91.1015 269.0345 14.71145034579025
RISAT 1                 
1 38248U 12017A   20134.52726254  .00000218  00000-0  17259-4 0  9998
2 38248  97.5670 144.1821 0004726  26.1262 334.0205 15.10064891443362
DMC3-FM1                
1 40715U 15032A   20134.48715019  .00000009  00000-0  90133-5 0  9993
2 40715  97.9370  28.9109 0015500 341.7765  18.2894 14.73687934260504
DMC3-FM2                
1 40716U 15032B   20134.57712938  .00000015  00000-0  98993-5 0  9990
2 40716  97.9399  29.3445 0012952 351.6589   8.4401 14.73693438260529
DMC3-FM3                
1 40717U 15032C   20134.53197022  .00000009  00000-0  91032-5 0  9998
2 40717  97.9408  30.0174 0016489 343.0382  17.0269 14.73699339260517
